#aV2014  1  2  0  0  0.00000000     288 DD+AD WGS84 FIT  NGA
## 1773 345600.00000000   300.00000000 56659 0.0000000000000
+   31     1  2  3  4  5  6  7  8  9 10 11 12 13 14 15 16 17
+         18 19 20 21 22 23 24 25 26 27 28 29 31 32  0  0  0
+          0  0  0  0  0  0  0  0  0  0  0  0  0  0  0  0  0
+          0  0  0  0  0  0  0  0  0  0  0  0  0  0  0  0  0
+          0  0  0  0  0  0  0  0  0  0  0  0  0  0  0  0  0
++         2  2  2  2  2  2  2  2  2  2  2  2  2  2  2  2  2
++         2  2  2  2  2  2  2  2  2  2  2  2  2  2  0  0  0
++         0  0  0  0  0  0  0  0  0  0  0  0  0  0  0  0  0
++         0  0  0  0  0  0  0  0  0  0  0  0  0  0  0  0  0
++         0  0  0  0  0  0  0  0  0  0  0  0  0  0  0  0  0
%c cc cc ccc ccc cccc cccc cccc cccc ccccc ccccc ccccc ccccc
%c cc cc ccc ccc cccc cccc cccc cccc ccccc ccccc ccccc ccccc
%f  0.0000000  0.000000000  0.00000000000  0.000000000000000
%f  0.0000000  0.000000000  0.00000000000  0.000000000000000
%i    0    0    0    0      0      0      0      0         0
%i    0    0    0    0      0      0      0      0         0
/*      NGA, ST. LOUIS,MO.                                  
/*   EPHEMERIS COMPUTED FROM  1 DAYS OF DATA                
/*   EPOCHA SMOOTHER                                       
/* CCCCCCCCCCCCCCCCCCCCCCCCCCCCCCCCCCCCCCCCCCCCCCCCCCCCCCCCC
*  2014  1  2 11 20  0.00000000
P  1  18420.045956   6026.996111  18177.453453     97.741434                    
V  1  10575.888692  20603.503281 -17401.790522      0.026333                    
P  2 -14382.419266 -22660.788380      1.927288    470.417462                    
V  2   2433.896318  -1887.596835  30937.044979      0.022011                    
P  3  18224.916561   9803.465317 -17281.771605    307.107747                    
V  3 -20317.552209   5357.401420 -18815.299499      0.048833                    
P  4  -3235.891498 -22895.069006  12539.430468      4.673174                    
V  4  11311.019022  12491.062336  25358.075914      0.003125                    
P  5  -7925.587315 -15525.299856 -20039.297851   -393.645749                    
V  5  13348.421211 -21698.365849  11711.792229      0.011754                    
P  6  11072.033602  13595.599793 -20003.583441    218.990457                    
V  6 -25284.888631   3231.412121 -11375.531829      0.157771                    
P  7  11801.465475  -9228.667574 -21844.855740    298.279473                    
V  7  14159.681899  24021.636471  -2801.408187      0.041872                    
P  8   4321.361729 -18647.831402 -17985.697009     11.005905                    
V  8  10808.969672  20669.286182 -19266.063274      0.002423                    
P  9   2561.180620 -19457.087604 -18354.643843    295.026440                    
V  9  12453.007139  18464.612079 -18516.877793      0.029196                    
P 10   7077.701646 -24167.065270  -8054.323010   -108.370344                    
V 10   7925.459877  -6911.634133  29305.663278     -0.014895                    
P 11  22745.864985  10136.751755   9062.641019   -452.071751                    
V 11   6299.264632  11394.176460 -26898.378475     -0.033531                    
P 12 -16714.077861   1486.870484  20483.310385    177.737045                    
V 12  12709.314311 -22823.793551  12203.704065      0.023293                    
P 13  23258.109353  -5884.380006 -11684.608905     43.929155                    
V 13  14348.762437   2982.551344  27232.099164     -0.038063                    
P 14  -7621.714337  14156.737427  21329.602028    205.933783                    
V 14 -26503.020418  -2113.666189  -8287.807625     -0.012032                    
P 15 -25119.415999  -4489.726456  -7923.758887   -155.465527                    
V 15   9785.259022  -3550.975189 -28881.550901     -0.020166                    
P 16   6776.173213  15034.939081 -20765.289279   -236.803154                    
V 16 -14697.111216  21849.990443  11373.302199      0.013106                    
P 17   6894.177797 -14535.190681  21333.507268    -55.551372                    
V 17  26529.769865   1327.504600  -7991.771633     -0.034687                    
P 18 -16526.477826  19143.960729  -7100.814602    293.823618                    
V 18   1091.061394 -10464.187993 -29352.842830      0.021031                    
P 19  24338.462101   7591.000765  -8324.383486   -429.513783                    
V 19 -10406.002232   1352.920302 -29204.752897     -0.025567                    
P 20  18006.530111  -5358.368514  18555.067678    149.605265                    
V 20  -8642.622557  22587.526945  14835.042994      0.031200                    
P 21 -10900.762903  11557.961929 -20627.712805   -335.950418                    
V 21 -15216.624549 -23251.010233  -5331.422348     -0.020893                    
P 22  -9993.619739  24249.148813   3830.039046    204.384931                    
V 22  -5786.796263   2161.098662 -30493.763150      0.023246                    
P 23  26777.687278   -362.287478   -203.533251     16.191657                    
V 23    390.434056   2698.564795  31332.031985     -0.033084                    
P 24 -19077.114303 -10476.240482  15270.501079    -20.859761                    
V 24  -8448.085341 -17557.196857 -22511.853218     -0.006819                    
P 25 -17959.733569  14522.963276  12956.265764      6.526177                    
V 25   6181.697876 -15494.899992  25935.734461      0.024641                    
P 26 -15896.486844 -13127.024537 -17571.118935    205.267547                    
V 26  20911.526619    555.620664 -19778.036243     -0.104873                    
P 27  14270.630323  12602.493996 -18534.987900    -12.107665                    
V 27 -23475.206079   1952.498905 -16725.554923     -0.023324                    
P 28  12913.914914 -23053.294128   2196.660528    321.424261                    
V 28   2905.107756   -588.100235 -32237.707219      0.029888                    
P 29 -24856.419397   4703.450464  -7988.886112    500.139445                    
V 29 -10119.830130  -2762.355295  29740.825221      0.029706                    
P 31   5074.123196  23654.523766  10769.143861    331.888801                    
V 31  -8502.000065 -10701.273514  28242.419428      0.004331                    
P 32  13293.631581   8040.704711  21602.819910   -507.743396                    
V 32 -14923.591216  22886.516923   1207.201358      0.054806                    
EOF
